{
  "norad_id": 49194,
  "name": "ONEWEB-0325",
  "history": [
    {
      "epoch": "2026-03-28T18:51:39.148992Z",
      "apogee_km": 1191.2290210924793,
      "perigee_km": 1188.2466729727612,
      "latitude_deg": 1.5840389775695e-05,
      "longitude_deg": -117.67344471119293,
      "height_km": 1192.3934684791934,
      "semi_major_axis_km": 7567.87484703262,
      "eccentricity": 0.00019704,
      "inclination_deg": 87.9233,
      "raan_deg": 351.441,
      "arg_perigee_deg": 80.6914,
      "mean_anomaly_deg": 279.4441,
      "mean_motion_rev_day": 13.1868738
    },
    {
      "epoch": "2026-03-29T03:57:57.472128Z",
      "apogee_km": 1190.9578776146882,
      "perigee_km": 1188.2410602223463,
      "latitude_deg": -6.719155978826532e-05,
      "longitude_deg": 105.30107314453078,
      "height_km": 1192.4507539509555,
      "semi_major_axis_km": 7567.736468918517,
      "eccentricity": 0.0001795,
      "inclination_deg": 87.9234,
      "raan_deg": 351.3658,
      "arg_perigee_deg": 88.0633,
      "mean_anomaly_deg": 272.0704,
      "mean_motion_rev_day": 13.18723549
    },
    {
      "epoch": "2026-03-30T03:38:21.982848Z",
      "apogee_km": 1191.084476598081,
      "perigee_km": 1188.3827467897063,
      "latitude_deg": -3.372108054826544e-05,
      "longitude_deg": 109.03121187192949,
      "height_km": 1192.4311047037068,
      "semi_major_axis_km": 7567.870611693893,
      "eccentricity": 0.0001785,
      "inclination_deg": 87.9236,
      "raan_deg": 351.1703,
      "arg_perigee_deg": 81.5002,
      "mean_anomaly_deg": 278.6332,
      "mean_motion_rev_day": 13.18688487
    }
  ]
}